ONEWEB-0320             
1 49190U 21083E   25101.64038894 -.00000036  00000+0 -12326-3 0  9995
2 49190  87.9110  61.2475 0001958  84.2570 275.8785 13.18686106173109
ONEWEB-0321             
1 49191U 21083F   25101.76600433  .00000032  00000+0  47166-4 0  9998
2 49191  87.9327   0.3240 0001675  70.2347 289.8967 13.20769267179888
ONEWEB-0322             
1 49192U 21083G   25101.76168125  .00000252  00000+0  65625-3 0  9999
2 49192  87.8975  45.9932 0001752  69.1821 290.9495 13.13471918174283
ONEWEB-0324             
1 49193U 21083H   25101.62616360  .00000010  00000+0 -68596-5 0  9999
2 49193  87.9110  61.2297 0001892  89.9977 270.1372 13.18685688173120
ONEWEB-0325             
1 49194U 21083J   25101.63089848 -.00000074  00000+0 -22024-3 0  9991
2 49194  87.9113  61.2461 0001951  80.0901 280.0451 13.18685881173136
ONEWEB-0326             
1 49195U 21083K   25101.64524295 -.00000023  00000+0 -92045-4 0  9998
2 49195  87.9108  61.2352 0002321  90.8476 269.2922 13.18684091173121
ONEWEB-0327             
1 49196U 21083L   25101.64498410 -.00000013  00000+0 -66023-4 0  9994
2 49196  87.9110  61.2631 0002284  87.0916 273.0477 13.18687295173149
ONEWEB-0328             
1 49197U 21083M   25101.75153437  .00000323  00000+0  84930-3 0  9992
2 49197  87.8965  45.9471 0001839  83.1787 276.9551 13.13470369174262
